CCSDS_OMM_VERS = 2.0
CREATION_DATE  = 
ORIGINATOR     = 

OBJECT_NAME    = SL-14 R/B
OBJECT_ID      = 1991-042B
CENTER_NAME    = EARTH
REF_FRAME      = TEME
TIME_SYSTEM    = UTC
MEAN_ELEMENT_THEORY = SGP/SGP4

EPOCH          = 2026-02-19T23:57:37.192032
MEAN_MOTION    = 14.81810396
ECCENTRICITY   = .0015738
INCLINATION    = 82.4896
RA_OF_ASC_NODE = 236.7747
ARG_OF_PERICENTER = 302.0814
MEAN_ANOMALY   = 57.8871

EPHEMERIS_TYPE = 0
CLASSIFICATION_TYPE = U
NORAD_CAT_ID   = 21423
ELEMENT_SET_NO = 999
REV_AT_EPOCH   = 85045
BSTAR          = .45214E-4
MEAN_MOTION_DOT = .381E-5
MEAN_MOTION_DDOT = 0

CCSDS_OMM_VERS = 2.0
CREATION_DATE  = 
ORIGINATOR     = 

OBJECT_NAME    = ERS-1
OBJECT_ID      = 1991-050A
CENTER_NAME    = EARTH
REF_FRAME      = TEME
TIME_SYSTEM    = UTC
MEAN_ELEMENT_THEORY = SGP/SGP4

EPOCH          = 2026-02-20T00:59:41.385408
MEAN_MOTION    = 14.39434197
ECCENTRICITY   = .0030923
INCLINATION    = 98.7893
RA_OF_ASC_NODE = 68.8322
ARG_OF_PERICENTER = 254.1244
MEAN_ANOMALY   = 105.6533

EPHEMERIS_TYPE = 0
CLASSIFICATION_TYPE = U
NORAD_CAT_ID   = 21574
ELEMENT_SET_NO = 999
REV_AT_EPOCH   = 81319
BSTAR          = .96435E-4
MEAN_MOTION_DOT = .255E-5
MEAN_MOTION_DDOT = 0

CCSDS_OMM_VERS = 2.0
CREATION_DATE  = 
ORIGINATOR     = 

OBJECT_NAME    = ARIANE 40 R/B
OBJECT_ID      = 1991-050F
CENTER_NAME    = EARTH
REF_FRAME      = TEME
TIME_SYSTEM    = UTC
MEAN_ELEMENT_THEORY = SGP/SGP4

EPOCH          = 2026-02-20T03:13:30.090720
MEAN_MOTION    = 14.42879810
ECCENTRICITY   = .0004245
INCLINATION    = 98.2052
RA_OF_ASC_NODE = 104.0265
ARG_OF_PERICENTER = 119.6205
MEAN_ANOMALY   = 240.5408

EPHEMERIS_TYPE = 0
CLASSIFICATION_TYPE = U
NORAD_CAT_ID   = 21610
ELEMENT_SET_NO = 999
REV_AT_EPOCH   = 81646
BSTAR          = .86725E-4
MEAN_MOTION_DOT = .248E-5
MEAN_MOTION_DDOT = 0

CCSDS_OMM_VERS = 2.0
CREATION_DATE  = 
ORIGINATOR     = 

OBJECT_NAME    = INTERCOSMOS 25
OBJECT_ID      = 1991-086A
CENTER_NAME    = EARTH
REF_FRAME      = TEME
TIME_SYSTEM    = UTC
MEAN_ELEMENT_THEORY = SGP/SGP4

EPOCH          = 2026-02-20T03:43:23.352096
MEAN_MOTION    = 12.11947016
ECCENTRICITY   = .1487006
INCLINATION    = 82.6080
RA_OF_ASC_NODE = 320.6043
ARG_OF_PERICENTER = 154.7041
MEAN_ANOMALY   = 213.5120

EPHEMERIS_TYPE = 0
CLASSIFICATION_TYPE = U
NORAD_CAT_ID   = 21819
ELEMENT_SET_NO = 999
REV_AT_EPOCH   = 49456
BSTAR          = .14505E-3
MEAN_MOTION_DOT = .768E-5
MEAN_MOTION_DDOT = 0

CCSDS_OMM_VERS = 2.0
CREATION_DATE  = 
ORIGINATOR     = 

OBJECT_NAME    = SL-8 R/B
OBJECT_ID      = 1992-008B
CENTER_NAME    = EARTH
REF_FRAME      = TEME
TIME_SYSTEM    = UTC
MEAN_ELEMENT_THEORY = SGP/SGP4

EPOCH          = 2026-02-20T03:13:55.761888
MEAN_MOTION    = 13.75970058
ECCENTRICITY   = .0034564
INCLINATION    = 82.9245
RA_OF_ASC_NODE = 280.8395
ARG_OF_PERICENTER = 181.6128
MEAN_ANOMALY   = 290.9168

EPHEMERIS_TYPE = 0
CLASSIFICATION_TYPE = U
NORAD_CAT_ID   = 21876
ELEMENT_SET_NO = 999
REV_AT_EPOCH   = 70700
BSTAR          = .13112E-4
MEAN_MOTION_DOT = .28E-6
MEAN_MOTION_DDOT = 0

CCSDS_OMM_VERS = 2.0
CREATION_DATE  = 
ORIGINATOR     = 

OBJECT_NAME    = SL-8 R/B
OBJECT_ID      = 1992-020B
CENTER_NAME    = EARTH
REF_FRAME      = TEME
TIME_SYSTEM    = UTC
MEAN_ELEMENT_THEORY = SGP/SGP4

EPOCH          = 2026-02-19T21:11:50.773920
MEAN_MOTION    = 13.75547101
ECCENTRICITY   = .0028539
INCLINATION    = 82.9340
RA_OF_ASC_NODE = 166.9778
ARG_OF_PERICENTER = 350.0890
MEAN_ANOMALY   = 131.0716

EPHEMERIS_TYPE = 0
CLASSIFICATION_TYPE = U
NORAD_CAT_ID   = 21938
ELEMENT_SET_NO = 999
REV_AT_EPOCH   = 69868
BSTAR          = .85674E-4
MEAN_MOTION_DOT = .98E-6
MEAN_MOTION_DDOT = 0

CCSDS_OMM_VERS = 2.0
CREATION_DATE  = 
ORIGINATOR     = 

OBJECT_NAME    = USA 81
OBJECT_ID      = 1992-023A
CENTER_NAME    = EARTH
REF_FRAME      = TEME
TIME_SYSTEM    = UTC
MEAN_ELEMENT_THEORY = SGP/SGP4

EPOCH          = 2026-02-20T04:39:50.481792
MEAN_MOTION    = 14.32361456
ECCENTRICITY   = .0002742
INCLINATION    = 85.0114
RA_OF_ASC_NODE = 141.5307
ARG_OF_PERICENTER = 93.5954
MEAN_ANOMALY   = 266.5552

EPHEMERIS_TYPE = 0
CLASSIFICATION_TYPE = U
NORAD_CAT_ID   = 21949
ELEMENT_SET_NO = 999
REV_AT_EPOCH   = 9228
BSTAR          = .63378E-4
MEAN_MOTION_DOT = .191E-5
MEAN_MOTION_DDOT = 0

CCSDS_OMM_VERS = 2.0
CREATION_DATE  = 
ORIGINATOR     = 

OBJECT_NAME    = COSMOS 2219
OBJECT_ID      = 1992-076A
CENTER_NAME    = EARTH
REF_FRAME      = TEME
TIME_SYSTEM    = UTC
MEAN_ELEMENT_THEORY = SGP/SGP4

EPOCH          = 2026-02-20T02:51:54.270432
MEAN_MOTION    = 14.14080208
ECCENTRICITY   = .0019826
INCLINATION    = 71.0588
RA_OF_ASC_NODE = 54.7989
ARG_OF_PERICENTER = 230.6016
MEAN_ANOMALY   = 129.3352

EPHEMERIS_TYPE = 0
CLASSIFICATION_TYPE = U
NORAD_CAT_ID   = 22219
ELEMENT_SET_NO = 999
REV_AT_EPOCH   = 71589
BSTAR          = .16627E-3
MEAN_MOTION_DOT = .27E-5
MEAN_MOTION_DDOT = 0

CCSDS_OMM_VERS = 2.0
CREATION_DATE  = 
ORIGINATOR     = 

OBJECT_NAME    = SL-16 R/B
OBJECT_ID      = 1992-076B
CENTER_NAME    = EARTH
REF_FRAME      = TEME
TIME_SYSTEM    = UTC
MEAN_ELEMENT_THEORY = SGP/SGP4

EPOCH          = 2026-02-19T21:57:15.516288
MEAN_MOTION    = 14.16854669
ECCENTRICITY   = .0011117
INCLINATION    = 70.9977
RA_OF_ASC_NODE = 225.8151
ARG_OF_PERICENTER = 128.9964
MEAN_ANOMALY   = 339.7536

EPHEMERIS_TYPE = 0
CLASSIFICATION_TYPE = U
NORAD_CAT_ID   = 22220
ELEMENT_SET_NO = 999
REV_AT_EPOCH   = 71931
BSTAR          = .33949E-5
MEAN_MOTION_DOT = -.41E-6
MEAN_MOTION_DDOT = 0

CCSDS_OMM_VERS = 2.0
CREATION_DATE  = 
ORIGINATOR     = 

OBJECT_NAME    = COSMOS 2221
OBJECT_ID      = 1992-080A
CENTER_NAME    = EARTH
REF_FRAME      = TEME
TIME_SYSTEM    = UTC
MEAN_ELEMENT_THEORY = SGP/SGP4

EPOCH          = 2026-02-20T02:45:31.133952
MEAN_MOTION    = 14.96128485
ECCENTRICITY   = .0012862
INCLINATION    = 82.5038
RA_OF_ASC_NODE = 295.9151
ARG_OF_PERICENTER = 250.7830
MEAN_ANOMALY   = 109.2000

EPHEMERIS_TYPE = 0
CLASSIFICATION_TYPE = U
NORAD_CAT_ID   = 22236
ELEMENT_SET_NO = 999
REV_AT_EPOCH   = 77816
BSTAR          = .1389E-3
MEAN_MOTION_DOT = .159E-4
MEAN_MOTION_DDOT = 0

CCSDS_OMM_VERS = 2.0
CREATION_DATE  = 
ORIGINATOR     = 

OBJECT_NAME    = SL-16 R/B
OBJECT_ID      = 1992-093B
CENTER_NAME    = EARTH
REF_FRAME      = TEME
TIME_SYSTEM    = UTC
MEAN_ELEMENT_THEORY = SGP/SGP4

EPOCH          = 2026-02-20T03:25:24.653280
MEAN_MOTION    = 14.15446157
ECCENTRICITY   = .0005642
INCLINATION    = 71.0215
RA_OF_ASC_NODE = 41.1011
ARG_OF_PERICENTER = 312.5139
MEAN_ANOMALY   = 47.5506

EPHEMERIS_TYPE = 0
CLASSIFICATION_TYPE = U
NORAD_CAT_ID   = 22285
ELEMENT_SET_NO = 999
REV_AT_EPOCH   = 71067
BSTAR          = .17548E-3
MEAN_MOTION_DOT = .295E-5
MEAN_MOTION_DDOT = 0

CCSDS_OMM_VERS = 2.0
CREATION_DATE  = 
ORIGINATOR     = 

OBJECT_NAME    = COSMOS 2228
OBJECT_ID      = 1992-094A
CENTER_NAME    = EARTH
REF_FRAME      = TEME
TIME_SYSTEM    = UTC
MEAN_ELEMENT_THEORY = SGP/SGP4

EPOCH          = 2026-02-20T03:25:40.950912
MEAN_MOTION    = 14.97100031
ECCENTRICITY   = .0018161
INCLINATION    = 82.5146
RA_OF_ASC_NODE = 254.1141
ARG_OF_PERICENTER = 5.6278
MEAN_ANOMALY   = 354.5145

EPHEMERIS_TYPE = 0
CLASSIFICATION_TYPE = U
NORAD_CAT_ID   = 22286
ELEMENT_SET_NO = 999
REV_AT_EPOCH   = 77343
BSTAR          = .14042E-3
MEAN_MOTION_DOT = .1651E-4
MEAN_MOTION_DDOT = 0

